NORAD_CAT_ID,OBJECT_NAME,OBJECT_TYPE,EPOCH,MEAN_MOTION,ECCENTRICITY,INCLINATION,RA_OF_ASC_NODE,ARG_OF_PERICENTER,MEAN_ANOMALY,BSTAR,MEAN_MOTION_DOT,MEAN_MOTION_DDOT,TLE_LINE0,TLE_LINE1,TLE_LINE2,SEMIMAJOR_AXIS,PERIOD,APOGEE,PERIGEE,DECAYED
53153.0,STARLINK-4098,PAYLOAD,2022-11-11 21:09:19,15.0885242,0.0001828,53.2147,213.1094,48.8301,311.2849,0.00099304,0.00015557,0.0,0 STARLINK-4098,1 53153U 22083X   22315.88147368  .00015557  00000-0  99304-3 0  9991,2 53153  53.2147 213.1094 0001828  48.8301 311.2849 15.08852420 18118,6917.842,95.437,540.972,538.443,0.0
53153.0,STARLINK-4098,PAYLOAD,2022-11-12 01:55:28,15.08851177,0.0001817,53.2146,212.2173,48.0312,312.0835,0.00073622,0.00011452,0.0,0 STARLINK-4098,1 53153U 22083X   22316.08019323  .00011452  00000-0  73622-3 0  9998,2 53153  53.2146 212.2173 0001817  48.0312 312.0835 15.08851177 18771,6917.846,95.437,540.9680000000002,538.4540000000002,0.0
53153.0,STARLINK-4098,PAYLOAD,2022-11-12 09:52:24,15.08861306,0.0001806,53.2144,210.7305,49.0852,311.0297,0.00084551,0.00013202,0.0,0 STARLINK-4098,1 53153U 22083X   22316.41138908  .00013202  00000-0  84551-3 0  9994,2 53153  53.2144 210.7305 0001806  49.0852 311.0297 15.08861306 18199,6917.815,95.436,540.93,538.431,0.0
53153.0,STARLINK-4098,PAYLOAD,2022-11-12 21:00:05,15.08862511,0.000174,53.2142,208.649,50.4763,309.6382,0.00046126,7.065e-05,0.0,0 STARLINK-4098,1 53153U 22083X   22316.87506266  .00007065  00000-0  46126-3 0  9996,2 53153  53.2142 208.6490 0001740  50.4763 309.6382 15.08862511 18267,6917.812,95.436,540.88,538.4730000000002,0.0
53153.0,STARLINK-4098,PAYLOAD,2022-11-13 01:46:14,15.08858255,0.0001720999999999,53.2143,207.7569,49.3451,310.7691,0.00025501,3.775e-05,0.0,0 STARLINK-4098,1 53153U 22083X   22317.07378093  .00003775  00000-0  25501-3 0  9992,2 53153  53.2143 207.7569 0001721  49.3451 310.7691 15.08858255 18924,6917.825,95.436,540.88,538.499,0.0
53153.0,STARLINK-4098,PAYLOAD,2022-11-13 09:43:10,15.08846187,0.0001729,53.2133,206.2698,43.78100000000001,316.3319,-7.2177e-05,-1.437e-05,0.0,0 STARLINK-4098,1 53153U 22083X   22317.40498215 -.00001437  00000-0 -72177-4 0  9995,2 53153  53.2133 206.2698 0001729  43.7810 316.3319 15.08846187 18970,6917.861,95.437,540.923,538.53,0.0
53153.0,STARLINK-4098,PAYLOAD,2022-11-14 01:37:02,15.08826474,0.000177,53.2144,203.2963,47.6988,312.4154,-0.00025994,-4.421e-05,0.0,0 STARLINK-4098,1 53153U 22083X   22318.06739354 -.00004421  00000-0 -25994-3 0  9990,2 53153  53.2144 203.2963 0001770  47.6988 312.4154 15.08826474 19072,6917.922,95.438,541.011,538.562,0.0
53153.0,STARLINK-4098,PAYLOAD,2022-11-14 09:33:58,15.08825708,0.0001811,53.214,201.8095,49.7442,310.3708,-0.00011177,-2.066e-05,0.0,0 STARLINK-4098,1 53153U 22083X   22318.39859769 -.00002066  00000-0 -11177-3 0  9990,2 53153  53.2140 201.8095 0001811  49.7442 310.3708 15.08825708 18498,6917.924,95.438,541.0419999999998,538.536,0.0
53153.0,STARLINK-4098,PAYLOAD,2022-11-15 11:00:09,15.08843404,0.0001936,53.2146,197.0518,52.1305,307.9862,0.00064162,9.939e-05,0.0,0 STARLINK-4098,1 53153U 22083X   22319.45844399  .00009939  00000-0  64162-3 0  9997,2 53153  53.2146 197.0518 0001936  52.1305 307.9862 15.08843404 19288,6917.87,95.437,541.0740000000002,538.396,0.0
53153.0,STARLINK-4098,PAYLOAD,2022-11-15 12:35:32,15.08846242,0.0001934,53.2149,196.7541,52.4057,307.7111,0.00069687,0.00010822,0.0,0 STARLINK-4098,1 53153U 22083X   22319.52468361  .00010822  00000-0  69687-3 0  9996,2 53153  53.2149 196.7541 0001934  52.4057 307.7111 15.08846242 18667,6917.861,95.437,541.064,538.388,0.0
53153.0,STARLINK-4098,PAYLOAD,2022-11-15 20:32:28,15.08855484,0.0001995,53.215,195.2677,52.3846,307.7327,0.00065764,0.00010198,0.0,0 STARLINK-4098,1 53153U 22083X   22319.85588022  .00010198  00000-0  65764-3 0  9997,2 53153  53.2150 195.2677 0001995  52.3846 307.7327 15.08855484 18718,6917.833000000001,95.437,541.078,538.318,0.0
53153.0,STARLINK-4098,PAYLOAD,2022-11-16 10:50:56,15.08848817,0.0002244,53.2143,192.5908,53.7329,306.387,0.00029647,4.434e-05,0.0,0 STARLINK-4098,1 53153U 22083X   22320.45204002  .00004434  00000-0  29647-3 0  9994,2 53153  53.2143 192.5908 0002244  53.7329 306.3870 15.08848817 19436,6917.853,95.437,541.271,538.1659999999998,0.0
53153.0,STARLINK-4098,PAYLOAD,2022-11-16 18:47:51,15.08852694,0.0002036,53.2154,191.1044,51.7331,308.3844,0.00034829,5.261e-05,0.0,0 STARLINK-4098,1 53153U 22083X   22320.78323799  .00005261  00000-0  34829-3 0  9992,2 53153  53.2154 191.1044 0002036  51.7331 308.3844 15.08852694 18850,6917.842,95.437,541.115,538.298,0.0
53153.0,STARLINK-4098,PAYLOAD,2022-11-17 01:09:24,15.08855332,0.0002032,53.2154,189.9148,51.9213,308.1962,0.00038997,5.926e-05,0.0,0 STARLINK-4098,1 53153U 22083X   22321.04819548  .00005926  00000-0  38997-3 0  9992,2 53153  53.2154 189.9148 0002032  51.9213 308.1962 15.08855332 18892,6917.834,95.437,541.104,538.293,0.0
53153.0,STARLINK-4098,PAYLOAD,2022-11-18 01:00:11,15.0884258,0.0002006,53.2158,185.4526,56.8629,303.2555,0.00012417,1.689e-05,0.0,0 STARLINK-4098,1 53153U 22083X   22322.04179743  .00001689  00000-0  12417-3 0  9990,2 53153  53.2158 185.4526 0002006  56.8629 303.2555 15.08842580 19675,6917.873000000001,95.437,541.125,538.35,0.0
53153.0,STARLINK-4098,PAYLOAD,2022-11-19 00:50:58,15.08844042,0.0002009,53.2166,180.9933,54.6452,305.4727,9.3862e-05,1.206e-05,0.0,0 STARLINK-4098,1 53153U 22083X   22323.03539576  .00001206  00000-0  93862-4 0  9993,2 53153  53.2166 180.9933 0002009  54.6452 305.4727 15.08844042 19196,6917.868,95.437,541.123,538.3430000000002,0.0
53153.0,STARLINK-4098,PAYLOAD,2022-11-19 21:30:58,15.08845736,0.0001831,53.2159,177.1281,53.5318,306.5843,8.5814e-05,1.078e-05,0.0,0 STARLINK-4098,1 53153U 22083X   22323.89651269  .00001078  00000-0  85814-4 0  9996,2 53153  53.2159 177.1281 0001831  53.5318 306.5843 15.08845736 19320,6917.863,95.437,540.995,538.461,0.0
53153.0,STARLINK-4098,PAYLOAD,2022-11-20 00:41:45,15.08840716,0.0001665999999999,53.2151,176.5339,48.935,311.1785,4.0185000000000006e-06,-2.24e-06,0.0,0 STARLINK-4098,1 53153U 22083X   22324.02899449 -.00000224  00000-0  40185-5 0  9992,2 53153  53.2151 176.5339 0001666  48.9350 311.1785 15.08840716 19970,6917.878000000002,95.438,540.896,538.591,0.0
53153.0,STARLINK-4098,PAYLOAD,2022-11-20 13:24:50,15.08832306,0.0001851,53.2158,174.1548,48.4679,311.6471,-6.088e-05,-1.257e-05,0.0,0 STARLINK-4098,1 53153U 22083X   22324.55892111 -.00001257  00000-0 -60880-4 0  9990,2 53153  53.2158 174.1548 0001851  48.4679 311.6471 15.08832306 19421,6917.904,95.438,541.049,538.488,0.0
53153.0,STARLINK-4098,PAYLOAD,2022-11-20 15:00:14,15.08830535,0.0001866,53.2165,173.8572,49.3472,310.7682,5.1592e-05,5.33e-06,0.0,0 STARLINK-4098,1 53153U 22083X   22324.62516552  .00000533  00000-0  51592-4 0  9994,2 53153  53.2165 173.8572 0001866  49.3472 310.7682 15.08830535 20067,6917.909000000002,95.438,541.065,538.4830000000002,0.0
53153.0,STARLINK-4098,PAYLOAD,2022-11-20 19:46:23,15.08834407,0.0001842,53.2174,172.9655,50.8406,309.275,4.7043e-05,4.61e-06,0.0,0 STARLINK-4098,1 53153U 22083X   22324.82388346  .00000461  00000-0  47043-4 0  9990,2 53153  53.2174 172.9655 0001842  50.8406 309.2750 15.08834407 19460,6917.897,95.438,541.0369999999998,538.488,0.0
53153.0,STARLINK-4098,PAYLOAD,2022-11-21 13:15:38,15.08834556,0.0002127,53.2167,169.6946,56.1937,303.9257,2.8072e-05,1.58e-06,0.0,0 STARLINK-4098,1 53153U 22083X   22325.55252744  .00000158  00000-0  28072-4 0  9997,2 53153  53.2167 169.6946 0002127  56.1937 303.9257 15.08834556 19573,6917.897,95.438,541.2330000000002,538.2909999999998,0.0
53153.0,STARLINK-4098,PAYLOAD,2022-11-21 14:51:02,15.08821633,0.0001851,53.2169,169.3965,53.6533,306.463,3.7989e-05,3.16e-06,0.0,0 STARLINK-4098,1 53153U 22083X   22325.61877411  .00000316  00000-0  37989-4 0  9991,2 53153  53.2169 169.3965 0001851  53.6533 306.4630 15.08821633 20218,6917.937,95.439,541.082,538.521,0.0
53153.0,STARLINK-4098,PAYLOAD,2022-11-21 19:37:11,15.08820618,0.0001971,53.218,168.5052,56.7365,303.3815,2.2698e-05,7.3e-07,0.0,0 STARLINK-4098,1 53153U 22083X   22325.81749759  .00000073  00000-0  22698-4 0  9997,2 53153  53.2180 168.5052 0001971  56.7365 303.3815 15.08820618 19614,6917.94,95.439,541.168,538.441,0.0
53153.0,STARLINK-4098,PAYLOAD,2022-11-22 06:44:54,15.08822823,0.0001954,53.2171,166.4231,52.6463,307.4707,3.8119e-05,3.18e-06,0.0,0 STARLINK-4098,1 53153U 22083X   22326.28118115  .00000318  00000-0  38119-4 0  9992,2 53153  53.2171 166.4231 0001954  52.6463 307.4707 15.08822823 19687,6917.933000000001,95.439,541.15,538.446,0.0
53153.0,STARLINK-4098,PAYLOAD,2022-11-22 17:52:36,15.08827038,0.0001956,53.2169,164.3413,53.5175,306.5997,4.3357e-05,4.02e-06,0.0,0 STARLINK-4098,1 53153U 22083X   22326.74486293  .00000402  00000-0  43357-4 0  9992,2 53153  53.2169 164.3413 0001956  53.5175 306.5997 15.08827038 20388,6917.92,95.438,541.138,538.432,0.0
53153.0,STARLINK-4098,PAYLOAD,2022-11-22 21:03:21,15.08840338,0.0001906,53.2171,163.7467,51.5224,308.5939,0.00015166,2.126e-05,0.0,0 STARLINK-4098,1 53153U 22083X   22326.87733183  .00002126  00000-0  15166-3 0  9990,2 53153  53.2171 163.7467 0001906  51.5224 308.5939 15.08840338 19778,6917.879,95.438,541.063,538.4259999999998,0.0
53153.0,STARLINK-4098,PAYLOAD,2022-11-22 22:38:44,15.08841008,0.0001914,53.2174,163.4496,52.2498,307.8668,0.00015326,2.152e-05,0.0,0 STARLINK-4098,1 53153U 22083X   22326.94357139  .00002152  00000-0  15326-3 0  9998,2 53153  53.2174 163.4496 0001914  52.2498 307.8668 15.08841008 20419,6917.877,95.437,541.066,538.418,0.0
53153.0,STARLINK-4098,PAYLOAD,2022-11-23 12:57:12,15.08840015,0.0001844,53.2168,160.7726,52.2573,307.8586,0.00022263,3.257e-05,0.0,0 STARLINK-4098,1 53153U 22083X   22327.53972982  .00003257  00000-0  22263-3 0  9998,2 53153  53.2168 160.7726 0001844  52.2573 307.8586 15.08840015 19878,6917.88,95.438,541.021,538.47,0.0
